ALOS-2                  
1 39766U 14029A   26186.06187343  .00000552  00000+0  80746-4 0  9992
2 39766  97.9228 282.9699 0001665  89.5658 270.5745 14.79477316654222
KAZEOSAT 2              
1 40010U 14033A   26186.28248617 -.00000001  00000+0  56784-5 0  9993
2 40010  97.5396  24.9372 0007020 259.5692 100.4733 14.85489001651640
HODOYOSHI-4             
1 40011U 14033B   26186.32314917  .00001470  00000+0  16455-3 0  9995
2 40011  97.5453  10.2699 0022169 244.2075 115.6855 14.88169636651502
DEIMOS-2                
1 40013U 14033D   26186.26972000  .00002851  00000+0  27405-3 0  9994
2 40013  97.5799  60.1211 0001103  85.2325 274.9021 14.93779041640423
HODOYOSHI-3             
1 40015U 14033F   26185.90148136  .00001279  00000+0  15331-3 0  9999
2 40015  97.6436 348.2308 0031463 297.4516  62.3502 14.85424506650251
SPOT 7                  
1 40053U 14034A   26186.33107764  .00000551  00000+0  12157-3 0  9997
2 40053  98.0616 248.3551 0001486  98.0792 262.0578 14.60974897639784
SKYSAT-B                
1 40072U 14037D   26185.87723848  .00001730  00000+0  19485-3 0  9997
2 40072  98.3847 145.8518 0004728 208.3182 151.7776 14.88075391648593
WORLDVIEW-3 (WV-3)      
1 40115U 14048A   26186.22512251  .00001187  00000+0  14529-3 0  9991
2 40115  97.8560 260.8087 0000488 167.4934 192.6293 14.85054221644584
GAOFEN-2                
1 40118U 14049A   26186.28437424  .00001298  00000+0  17479-3 0  9999
2 40118  98.0097 250.4740 0007510 163.6086 196.5370 14.80921432641910
YAOGAN-21               
1 40143U 14053A   26186.32038340  .00019209  00000+0  73284-3 0  9998
2 40143  97.1456 225.7801 0008855  40.0985 320.0907 15.26671634657722
YAOGAN-22               
1 40275U 14063A   26185.67742978 -.00000021  00000+0  68409-4 0  9998
2 40275 100.7748 337.2427 0006701 147.2730 212.8798 13.15531294562119
ASNARO                  
1 40298U 14070A   26186.26818539  .00020964  00000+0  98139-3 0  9993
2 40298  97.3441 261.8956 0006821 114.3729 245.8219 15.19734680646757
YAOGAN-24               
1 40310U 14072A   26186.31609588  .00000403  00000+0  66091-4 0  9997
2 40310  98.1518 323.8076 0013818 201.7771 158.2852 14.76107889626395
CBERS 4                 
1 40336U 14079A   26186.29909100  .00000085  00000+0  44110-4 0  9996
2 40336  98.3517 242.5621 0001205  51.9750 308.1545 14.35514186606554
YAOGAN-26               
1 40362U 14088A   26186.30144079  .00039969  00000+0  75979-3 0  9992
2 40362  97.0644 186.0944 0003498  23.0191 337.1217 15.48144437640509
SMAP                    
1 40376U 15003A   26186.19953154  .00000595  00000+0  12429-3 0  9998
2 40376  98.1278 193.0390 0001513  98.5585 261.5789 14.63383694610251
KOMPSAT-3A              
1 40536U 15014A   26186.26675612  .00038512  00000+0  53467-3 0  9993
2 40536  97.6892 178.9624 0057045 110.4573 250.2818 15.54972022624623
SENTINEL-2A             
1 40697U 15028A   26186.32657647  .00000205  00000+0  94894-4 0  9999
2 40697  98.5678 260.9208 0001227  96.1871 263.9452 14.30820915576329
GAOFEN-8                
1 40701U 15030A   26186.27233551  .00026595  00000+0  53301-3 0  9993
2 40701  97.6898  20.7351 0009791 125.7830 234.4330 15.46654444614240
CARBONITE 1 (CBNT-1)    
1 40718U 15032D   26186.32507698  .00002892  00000+0  35607-3 0  9998
2 40718  97.6521   3.6321 0013129 231.2252 128.7791 14.83647852592032
YAOGAN-27               
1 40878U 15040A   26186.27355421 -.00000296  00000+0 -66818-3 0  9999
2 40878 100.1163 171.8721 0008211 167.4317 192.7003 13.16069854520045
GAOFEN-9 01             
1 40894U 15047A   26186.28136058  .00001235  00000+0  15748-3 0  9996
2 40894  97.6267 221.1534 0028855  81.4064 279.0418 14.82921477582879
YAOGAN-28               
1 41026U 15064A   26186.33727685  .00008849  00000+0  32921-3 0  9991
2 41026  97.3101 324.2337 0011880 123.5075 236.7302 15.27666621593452
YAOGAN-29               
1 41038U 15069A   26186.32663736  .00000885  00000+0  11528-3 0  9996
2 41038  98.0017 214.9878 0001540  28.4877 331.6420 14.83102756573313
KENT RIDGE 1            
1 41167U 15077B   26186.17142878  .00005171  00000+0  18027-3 0  9994
2 41167  14.9788 132.2238 0008161 133.4510 226.6491 15.23242475583845
GAOFEN-4                
1 41194U 15083A   26186.02735091 -.00000322  00000+0  00000+0 0  9992
2 41194   0.4010  83.8398 0004072 115.8685 198.8758  1.00273046 38709
JASON-3                 
1 41240U 16002A   26186.17752457 -.00000007  00000+0  21652-3 0  9997
2 41240  66.0418  88.0139 0008278 271.7532  88.2539 12.87623515489566
SENTINEL-3A             
1 41335U 16011A   26186.16981874  .00000160  00000+0  84197-4 0  9991
2 41335  98.6241 253.2946 0001423  93.4210 266.7134 14.26737992540624
ZIYUAN 3-02 (ZY 3-02)   
1 41556U 16033A   26186.34396346  .00007657  00000+0  34387-3 0  9997
2 41556  97.3826 261.7692 0013076 220.5302 139.4961 15.21365884560740
CARTOSAT-2C             
1 41599U 16040A   26186.30498259  .00011457  00000+0  54620-3 0  9999
2 41599  97.4470 246.0333 0010094  75.0310 285.2042 15.19217214556464
