OBJECT_NAME,OBJECT_ID,EPOCH,MEAN_MOTION,ECCENTRICITY,INCLINATION,RA_OF_ASC_NODE,ARG_OF_PERICENTER,MEAN_ANOMALY,EPHEMERIS_TYPE,CLASSIFICATION_TYPE,NORAD_CAT_ID,ELEMENT_SET_NO,REV_AT_EPOCH,BSTAR,MEAN_MOTION_DOT,MEAN_MOTION_DDOT
ALOS-2,2014-029A,2026-07-05T01:29:05.864352,14.79477316,.00016658,97.9228,282.9699,89.5658,270.5745,0,U,39766,999,65422,.80746333E-4,.552E-5,0
KAZEOSAT 2,2014-033A,2026-07-05T06:46:46.805088,14.85489001,.00070205,97.5396,24.9372,259.5692,100.4733,0,U,40010,999,65164,.5678365E-5,-.1E-7,0
HODOYOSHI-4,2014-033B,2026-07-05T07:45:20.088288,14.88169636,.00221693,97.5453,10.2699,244.2075,115.6855,0,U,40011,999,65150,.16455307E-3,.147E-4,0
DEIMOS-2,2014-033D,2026-07-05T06:28:23.808000,14.93779041,.0001103,97.5799,60.1211,85.2325,274.9021,0,U,40013,999,64042,.27405449E-3,.2851E-4,0
HODOYOSHI-3,2014-033F,2026-07-04T21:38:07.989504,14.85424506,.00314631,97.6436,348.2308,297.4516,62.3502,0,U,40015,999,65025,.15330605E-3,.1279E-4,0
SPOT 7,2014-034A,2026-07-05T07:56:45.108096,14.60974897,.00014868,98.0616,248.3551,98.0792,262.0578,0,U,40053,999,63978,.12156823E-3,.551E-5,0
SKYSAT-B,2014-037D,2026-07-04T21:03:13.404672,14.88075391,.00047281,98.3847,145.8518,208.3182,151.7776,0,U,40072,999,64859,.19484651E-3,.173E-4,0
WORLDVIEW-3 (WV-3),2014-048A,2026-07-05T05:24:10.584864,14.85054221,.00004886,97.8560,260.8087,167.4934,192.6293,0,U,40115,999,64458,.14529031E-3,.1187E-4,0
GAOFEN-2,2014-049A,2026-07-05T06:49:29.934336,14.80921432,.000751,98.0097,250.4740,163.6086,196.5370,0,U,40118,999,64191,.17478749E-3,.1298E-4,0
YAOGAN-21,2014-053A,2026-07-05T07:41:21.125760,15.26671634,.00088559,97.1456,225.7801,40.0985,320.0907,0,U,40143,999,65772,.73283621E-3,.19209E-3,0
YAOGAN-22,2014-063A,2026-07-04T16:15:29.932992,13.15531294,.00067016,100.7748,337.2427,147.2730,212.8798,0,U,40275,999,56211,.68408597E-4,-.21E-6,0
ASNARO,2014-070A,2026-07-05T06:26:11.217696,15.19734680,.00068217,97.3441,261.8956,114.3729,245.8219,0,U,40298,999,64675,.98138749E-3,.20964E-3,0
YAOGAN-24,2014-072A,2026-07-05T07:35:10.684032,14.76107889,.00138185,98.1518,323.8076,201.7771,158.2852,0,U,40310,999,62639,.66090911E-4,.403E-5,0
CBERS 4,2014-079A,2026-07-05T07:10:41.462400,14.35514186,.00012052,98.3517,242.5621,51.9750,308.1545,0,U,40336,999,60655,.44109704E-4,.85E-6,0
YAOGAN-26,2014-088A,2026-07-05T07:14:04.484256,15.48144437,.00034982,97.0644,186.0944,23.0191,337.1217,0,U,40362,999,64050,.75979053E-3,.39969E-3,0
SMAP,2015-003A,2026-07-05T04:47:19.525056,14.63383694,.00015131,98.1278,193.0390,98.5585,261.5789,0,U,40376,999,61025,.1242867E-3,.595E-5,0
KOMPSAT-3A,2015-014A,2026-07-05T06:24:07.728768,15.54972022,.00570457,97.6892,178.9624,110.4573,250.2818,0,U,40536,999,62462,.53467461E-3,.38512E-3,0
SENTINEL-2A,2015-028A,2026-07-05T07:50:16.207008,14.30820915,.00012272,98.5678,260.9208,96.1871,263.9452,0,U,40697,999,57632,.94894192E-4,.205E-5,0
GAOFEN-8,2015-030A,2026-07-05T06:32:09.788064,15.46654444,.0009791,97.6898,20.7351,125.7830,234.4330,0,U,40701,999,61424,.53301115E-3,.26595E-3,0
CARBONITE 1 (CBNT-1),2015-032D,2026-07-05T07:48:06.651072,14.83647852,.00131296,97.6521,3.6321,231.2252,128.7791,0,U,40718,999,59203,.35606942E-3,.2892E-4,0
YAOGAN-27,2015-040A,2026-07-05T06:33:55.083744,13.16069854,.00082117,100.1163,171.8721,167.4317,192.7003,0,U,40878,999,52004,-.66818376E-3,-.296E-5,0
GAOFEN-9 01,2015-047A,2026-07-05T06:45:09.554112,14.82921477,.00288554,97.6267,221.1534,81.4064,279.0418,0,U,40894,999,58287,.15748326E-3,.1235E-4,0
YAOGAN-28,2015-064A,2026-07-05T08:05:40.719840,15.27666621,.00118801,97.3101,324.2337,123.5075,236.7302,0,U,41026,999,59345,.32920892E-3,.8849E-4,0
YAOGAN-29,2015-069A,2026-07-05T07:50:21.467904,14.83102756,.00015402,98.0017,214.9878,28.4877,331.6420,0,U,41038,999,57331,.11527751E-3,.885E-5,0
KENT RIDGE 1,2015-077B,2026-07-05T04:06:51.446592,15.23242475,.00081619,14.9788,132.2238,133.4510,226.6491,0,U,41167,999,58384,.18026925E-3,.5171E-4,0
GAOFEN-4,2015-083A,2026-07-05T00:39:23.118624,1.00273046,.00040727,0.4010,83.8398,115.8685,198.8758,0,U,41194,999,3870,0,-.322E-5,0
JASON-3,2016-002A,2026-07-05T04:15:38.122848,12.87623515,.00082784,66.0418,88.0139,271.7532,88.2539,0,U,41240,999,48956,.21652019E-3,-.7E-7,0
SENTINEL-3A,2016-011A,2026-07-05T04:04:32.339136,14.26737992,.00014235,98.6241,253.2946,93.4210,266.7134,0,U,41335,999,54062,.84197114E-4,.16E-5,0
ZIYUAN 3-02 (ZY 3-02),2016-033A,2026-07-05T08:15:18.442944,15.21365884,.00130768,97.3826,261.7692,220.5302,139.4961,0,U,41556,999,56074,.34386732E-3,.7657E-4,0
CARTOSAT-2C,2016-040A,2026-07-05T07:19:10.495776,15.19217214,.00100942,97.4470,246.0333,75.0310,285.2042,0,U,41599,999,55646,.54619525E-3,.11457E-3,0
